ONEWEB-0267             
1 48985U 21060U   25307.65779076  .00000058  00000+0  11788-3 0  9997
2 48985  87.8992 273.6930 0001977  91.3348 268.8010 13.16592570209916
ONEWEB-0268             
1 48986U 21060V   25307.62610546  .00000005  00000+0 -20132-4 0  9998
2 48986  87.8998 273.7067 0001883  85.3132 274.8214 13.16592741210178
ONEWEB-0269             
1 48987U 21060W   25307.91110868  .00000138  00000+0  32661-3 0  9998
2 48987  87.8987 273.6757 0001738  82.1059 278.0269 13.16593644209980
ONEWEB-0270             
1 48988U 21060X   25307.47254228  .00000034  00000+0  54226-4 0  9996
2 48988  87.8997 273.7391 0002329  89.5780 270.5618 13.16593223209962
ONEWEB-0271             
1 48989U 21060Y   25307.91584538  .00000113  00000+0  26132-3 0  9998
2 48989  87.9007 273.6366 0002025  91.3624 268.7739 13.16596189210024
ONEWEB-0272             
1 48990U 21060Z   25307.63402629 -.00000082  00000+0 -24916-3 0  9994
2 48990  87.8988 273.7146 0001901  92.4072 267.7276 13.16594928209933
ONEWEB-0273             
1 48991U 21060AA  25307.65620733  .00000006  00000+0 -18840-4 0  9990
2 48991  87.8996 273.7022 0002143  87.0615 273.0761 13.16592743209918
ONEWEB-0274             
1 48992U 21060AB  25307.90952300  .00000096  00000+0  21816-3 0  9991
2 48992  87.8986 273.6785 0001618  92.9634 267.1682 13.16595834209982
